{
    "links": {
        "self": "http://www.neowsapp.com/rest/v1/neo/3655363?api_key=iIulBulltgU6a56xZRHN4H3l9WmuAYTsLGpBGhQ2"
    },
    "id": "3655363",
    "neo_reference_id": "3655363",
    "name": "(2013 YF)",
    "designation": "2013 YF",
    "nasa_jpl_url": "http://ssd.jpl.nasa.gov/sbdb.cgi?sstr=3655363",
    "absolute_magnitude_h": 23.1,
    "estimated_diameter": {
        "kilometers": {
            "estimated_diameter_min": 0.063760979,
            "estimated_diameter_max": 0.1425738833
        },
        "meters": {
            "estimated_diameter_min": 63.7609789875,
            "estimated_diameter_max": 142.5738833281
        },
        "miles": {
            "estimated_diameter_min": 0.0396192233,
            "estimated_diameter_max": 0.0885912765
        },
        "feet": {
            "estimated_diameter_min": 209.1895703015,
            "estimated_diameter_max": 467.7620993781
        }
    },
    "is_potentially_hazardous_asteroid": false,
    "close_approach_data": [
        {
            "close_approach_date": "2008-07-26",
            "close_approach_date_full": "2008-Jul-26 01:00",
            "epoch_date_close_approach": 1217034000000,
            "relative_velocity": {
                "kilometers_per_second": "26.0392653446",
                "kilometers_per_hour": "93741.3552407227",
                "miles_per_hour": "58247.2326494368"
            },
            "miss_distance": {
                "astronomical": "0.4635427503",
                "lunar": "180.3181298667",
                "kilometers": "69345008.098821861",
                "miles": "43088989.9695932418"
            },
            "orbiting_body": "Earth"
        },
        {
            "close_approach_date": "2013-12-27",
            "close_approach_date_full": "2013-Dec-27 23:25",
            "epoch_date_close_approach": 1388186700000,
            "relative_velocity": {
                "kilometers_per_second": "14.2421294221",
                "kilometers_per_hour": "51271.6659196068",
                "miles_per_hour": "31858.2193043246"
            },
            "miss_distance": {
                "astronomical": "0.1523753782",
                "lunar": "59.2740221198",
                "kilometers": "22795032.019164434",
                "miles": "14164176.0951358292"
            },
            "orbiting_body": "Earth"
        },
        {
            "close_approach_date": "2015-07-11",
            "close_approach_date_full": "2015-Jul-11 14:18",
            "epoch_date_close_approach": 1436624280000,
            "relative_velocity": {
                "kilometers_per_second": "19.9534291273",
                "kilometers_per_hour": "71832.3448581425",
                "miles_per_hour": "44633.8256147719"
            },
            "miss_distance": {
                "astronomical": "0.2248475233",
                "lunar": "87.4656865637",
                "kilometers": "33636710.560455371",
                "miles": "20900882.7554552798"
            },
            "orbiting_body": "Earth"
        },
        {
            "close_approach_date": "2020-12-25",
            "close_approach_date_full": "2020-Dec-25 16:31",
            "epoch_date_close_approach": 1608913860000,
            "relative_velocity": {
                "kilometers_per_second": "18.5808292007",
                "kilometers_per_hour": "66890.9851225261",
                "miles_per_hour": "41563.4568390496"
            },
            "miss_distance": {
                "astronomical": "0.1802015699",
                "lunar": "70.0984106911",
                "kilometers": "26957771.027696113",
                "miles": "16750782.1725198394"
            },
            "orbiting_body": "Earth"
        }
    ],
    "orbital_data": {
        "orbit_id": "11",
        "orbit_determination_date": "2017-04-06 08:43:14",
        "first_observation_date": "2013-12-23",
        "last_observation_date": "2014-01-01",
        "data_arc_in_days": 9,
        "observations_used": 47,
        "orbit_uncertainty": "8",
        "minimum_orbit_intersection": ".107484",
        "jupiter_tisserand_invariant": "5.505",
        "epoch_osculation": "2456651.5",
        "eccentricity": ".3174737080107335",
        "semi_major_axis": "1.103662457977415",
        "inclination": "25.19984888456609",
        "ascending_node_longitude": "268.1441715884269",
        "orbital_period": "423.4994315482966",
        "perihelion_distance": ".7532786450510844",
        "perihelion_argument": "291.6382149969044",
        "aphelion_distance": "1.454046270903745",
        "perihelion_time": "2456738.725816373981",
        "mean_anomaly": "285.8528074528192",
        "mean_motion": ".8500601728882013",
        "equinox": "J2000",
        "orbit_class": {
            "orbit_class_type": "APO",
            "orbit_class_description": "Near-Earth asteroid orbits which cross the Earth’s orbit similar to that of 1862 Apollo",
            "orbit_class_range": "a (semi-major axis) > 1.0 AU; q (perihelion) < 1.017 AU"
        }
    },
    "is_sentry_object": false
}